ONEWEB-0656             
1 55817U 23029X   25285.17636393 -.00000054  00000+0 -16460-3 0  9992
2 55817  87.9235 323.8849 0001967  82.3184 277.8173 13.20771501128416
ONEWEB-0657             
1 55818U 23029Y   25285.22788644  .00000042  00000+0  73704-4 0  9996
2 55818  87.9261 354.3150 0002607  91.2242 268.9190 13.19726813126205
ONEWEB-0658             
1 55819U 23029Z   25285.22314117  .00000134  00000+0  30195-3 0  9995
2 55819  87.9279 354.2584 0002100 112.5149 247.6207 13.19724625126219
ONEWEB-0660             
1 55820U 23029AA  25285.21103446  .00000175  00000+0  43810-3 0  9990
2 55820  87.9057 339.0818 0001607 105.0361 255.0946 13.14502813126828
ONEWEB-0661             
1 55821U 23029AB  25285.16979882 -.00000054  00000+0 -17933-3 0  9995
2 55821  87.9051 339.1607 0001501 101.8249 258.3049 13.14504118126800
ONEWEB-0662             
1 55822U 23029AC  25285.20468397  .00000118  00000+0  28467-3 0  9998
2 55822  87.9048 339.1584 0001619 107.5536 252.5770 13.14503894126855
ONEWEB-0663             
1 55823U 23029AD  25285.15108581 -.00000048  00000+0 -15032-3 0  9997
2 55823  87.9241 323.9504 0001692 109.4450 250.6866 13.20849158128402
ONEWEB-0664             
1 55824U 23029AE  25285.16371989  .00000066  00000+0  12983-3 0  9993
2 55824  87.9221 323.9637 0001548  89.4088 270.7223 13.20772900128402
